ONEWEB-0010             
1 44058U 19010B   24340.92884373  .00000072  00000+0  15433-3 0  9996
2 44058  87.9081 340.0077 0001307  81.5307 278.5972 13.16592144278151
ONEWEB-0008             
1 44059U 19010C   24340.95418239 -.00000024  00000+0 -95378-4 0  9990
2 44059  87.9080 340.0036 0001952  94.0872 266.0482 13.16592616278273
ONEWEB-0007             
1 44060U 19010D   24341.15431748  .00000186  00000+0  45888-3 0  9992
2 44060  87.9081  10.3110 0001737  82.5636 277.5692 13.15549700278047
ONEWEB-0006             
1 44061U 19010E   24340.62587732  .00000142  00000+0  34432-3 0  9994
2 44061  87.9073  10.3835 0001581  86.5725 273.5586 13.15548330277981
ONEWEB-0011             
1 44062U 19010F   24340.59577367  .00000020  00000+0  19060-4 0  9990
2 44062  87.9072  10.3935 0001570 101.2140 258.9167 13.15547805277973
ONEWEB-0013             
1 45131U 20008A   24340.90182267  .00000631  00000+0  17963-2 0  9999
2 45131  87.8618 165.2717 0002356  75.5165 284.6223 13.09401315233000
ONEWEB-0017             
1 45132U 20008B   24340.97912056  .00000060  00000+0  13426-3 0  9991
2 45132  87.8893 147.4459 0001198  93.8931 266.2333 13.10376605235610
